[{"OBJECT_NAME":"OBJECT C","OBJECT_ID":"2022-023C","EPOCH":"2026-03-09T22:57:27.819936","MEAN_MOTION":15.18202357,"ECCENTRICITY":0.00963055,"INCLINATION":63.4862,"RA_OF_ASC_NODE":247.9876,"ARG_OF_PERICENTER":349.5574,"MEAN_ANOMALY":10.3536,"EPHEMERIS_TYPE":0,"CLASSIFICATION_TYPE":"U","NORAD_CAT_ID":51948,"ELEMENT_SET_NO":999,"REV_AT_EPOCH":22265,"BSTAR":0.00022353772,"MEAN_MOTION_DOT":4.943e-5,"MEAN_MOTION_DDOT":0},{"OBJECT_NAME":"STARLINK-32258","OBJECT_ID":"2024-155R","EPOCH":"2026-03-09T10:45:18.808704","MEAN_MOTION":15.30187509,"ECCENTRICITY":0.00011976,"INCLINATION":53.1584,"RA_OF_ASC_NODE":130.8063,"ARG_OF_PERICENTER":88.3205,"MEAN_ANOMALY":271.7933,"EPHEMERIS_TYPE":0,"CLASSIFICATION_TYPE":"U","NORAD_CAT_ID":60939,"ELEMENT_SET_NO":999,"REV_AT_EPOCH":8625,"BSTAR":7.2147459e-5,"MEAN_MOTION_DOT":1.777e-5,"MEAN_MOTION_DDOT":0}]
